[{"OBJECT_NAME":"HERMES-1","OBJECT_ID":"2025-052AJ","EPOCH":"2026-03-09T16:38:32.274240","MEAN_MOTION":15.20586525,"ECCENTRICITY":0.00077337,"INCLINATION":97.402,"RA_OF_ASC_NODE":322.1122,"ARG_OF_PERICENTER":159.5432,"MEAN_ANOMALY":200.6114,"EPHEMERIS_TYPE":0,"CLASSIFICATION_TYPE":"U","NORAD_CAT_ID":63242,"ELEMENT_SET_NO":999,"REV_AT_EPOCH":5467,"BSTAR":0.00030412642,"MEAN_MOTION_DOT":6.601e-5,"MEAN_MOTION_DDOT":0},{"OBJECT_NAME":"MAUVE","OBJECT_ID":"2025-276CU","EPOCH":"2026-03-09T17:14:44.951712","MEAN_MOTION":15.19228326,"ECCENTRICITY":5.768e-5,"INCLINATION":97.4273,"RA_OF_ASC_NODE":144.0489,"ARG_OF_PERICENTER":359.247,"MEAN_ANOMALY":0.8764,"EPHEMERIS_TYPE":0,"CLASSIFICATION_TYPE":"U","NORAD_CAT_ID":66756,"ELEMENT_SET_NO":999,"REV_AT_EPOCH":1532,"BSTAR":0.00039937228,"MEAN_MOTION_DOT":8.348e-5,"MEAN_MOTION_DDOT":0}]
